[{"OBJECT_NAME":"STARLINK-32911","OBJECT_ID":"2025-037V","EPOCH":"2026-03-09T22:00:01.999584","MEAN_MOTION":14.98355821,"ECCENTRICITY":0.00031361,"INCLINATION":70.0028,"RA_OF_ASC_NODE":354.065,"ARG_OF_PERICENTER":265.9496,"MEAN_ANOMALY":13.4985,"EPHEMERIS_TYPE":0,"CLASSIFICATION_TYPE":"U","NORAD_CAT_ID":63096,"ELEMENT_SET_NO":999,"REV_AT_EPOCH":576,"BSTAR":-0.002949172,"MEAN_MOTION_DOT":-0.0003513,"MEAN_MOTION_DDOT":0},{"OBJECT_NAME":"FENGYUN 1C DEB","OBJECT_ID":"1999-025RK","EPOCH":"2026-03-09T17:38:14.291232","MEAN_MOTION":14.95383795,"ECCENTRICITY":0.00371964,"INCLINATION":98.9196,"RA_OF_ASC_NODE":352.1506,"ARG_OF_PERICENTER":284.0168,"MEAN_ANOMALY":136.3268,"EPHEMERIS_TYPE":0,"CLASSIFICATION_TYPE":"U","NORAD_CAT_ID":30106,"ELEMENT_SET_NO":999,"REV_AT_EPOCH":99840,"BSTAR":0.0053227568,"MEAN_MOTION_DOT":0.0005999,"MEAN_MOTION_DDOT":0}]
